[{"OBJECT_NAME":"STARLINK-31630","OBJECT_ID":"2024-050T","EPOCH":"2026-03-09T13:39:04.940352","MEAN_MOTION":15.30200807,"ECCENTRICITY":0.0001409,"INCLINATION":53.16,"RA_OF_ASC_NODE":168.5079,"ARG_OF_PERICENTER":92.3163,"MEAN_ANOMALY":267.7999,"EPHEMERIS_TYPE":0,"CLASSIFICATION_TYPE":"U","NORAD_CAT_ID":59271,"ELEMENT_SET_NO":999,"REV_AT_EPOCH":11071,"BSTAR":-5.7526e-5,"MEAN_MOTION_DOT":-2.063e-5,"MEAN_MOTION_DDOT":0},{"OBJECT_NAME":"STARLINK-35042","OBJECT_ID":"2025-195Z","EPOCH":"2026-03-09T17:03:36.185472","MEAN_MOTION":15.302102,"ECCENTRICITY":6.942e-5,"INCLINATION":53.1609,"RA_OF_ASC_NODE":258.3063,"ARG_OF_PERICENTER":132.4539,"MEAN_ANOMALY":227.6521,"EPHEMERIS_TYPE":0,"CLASSIFICATION_TYPE":"U","NORAD_CAT_ID":65481,"ELEMENT_SET_NO":999,"REV_AT_EPOCH":2997,"BSTAR":0.00079967789,"MEAN_MOTION_DOT":0.00023407,"MEAN_MOTION_DDOT":0}]
