STARLINK-31630          
1 59271U 24050T   26068.56880718 -.00002063  00000+0 -57526-4 0  9991
2 59271  53.1600 168.5079 0001409  92.3163 267.7999 15.30200807110710
STARLINK-35042          
1 65481U 25195Z   26068.71083548  .00023407  00000+0  79968-3 0  9991
2 65481  53.1609 258.3063 0000694 132.4539 227.6521 15.30210199 29976
